[{"OBJECT_NAME":"SITRO-AIS 8 (ANOKHIN)","OBJECT_ID":"2023-091AD","EPOCH":"2026-03-09T23:44:40.058592","MEAN_MOTION":15.29359179,"ECCENTRICITY":0.0012509,"INCLINATION":97.5169,"RA_OF_ASC_NODE":133.2823,"ARG_OF_PERICENTER":92.0171,"MEAN_ANOMALY":268.2501,"EPHEMERIS_TYPE":0,"CLASSIFICATION_TYPE":"U","NORAD_CAT_ID":57193,"ELEMENT_SET_NO":999,"REV_AT_EPOCH":14927,"BSTAR":0.00064982524,"MEAN_MOTION_DOT":0.00018494,"MEAN_MOTION_DDOT":0},{"OBJECT_NAME":"STARLINK-35670","OBJECT_ID":"2025-262AA","EPOCH":"2026-03-08T16:49:15.738240","MEAN_MOTION":15.27576159,"ECCENTRICITY":0.00016234,"INCLINATION":43.0034,"RA_OF_ASC_NODE":301.8816,"ARG_OF_PERICENTER":269.8132,"MEAN_ANOMALY":90.2534,"EPHEMERIS_TYPE":0,"CLASSIFICATION_TYPE":"U","NORAD_CAT_ID":66480,"ELEMENT_SET_NO":999,"REV_AT_EPOCH":1875,"BSTAR":0.00089741974,"MEAN_MOTION_DOT":0.00024512,"MEAN_MOTION_DDOT":0}]
